sat29519
1 29519U 04029D   20046.53347368  .00011536  00000-0  11069-2 0  9997
2 29519  87.9957 152.9839 3571670 312.1849  29.4351  8.18089309249259
